PHISAT 2                
1 60470U 24149C   26068.78834181  .00008925  00000+0  31421-3 0  9996
2 60470  97.3806 148.6498 0001175 168.6230 191.5037 15.29548631 86792
STARLINK-32457          
1 61717U 24196L   26068.52642876 -.00000701  00000+0 -11543-4 0  9993
2 61717  53.1601 101.9495 0001072 115.0692 245.0420 15.30190961 77133
